{"type": "FeatureCollection", "features": [ {"type": "Feature", "properties": {"norad_id": 34529, "name": "IRIDIUM 33 DEB", "group": "iridium-33-debris", "lat": 14.332886788887468, "lon": -148.18081088739706, "alt_km": 753.5635217691761, "timestamp": "2025-12-18T23:35:49.447453+00:00", "meta": {"OBJECT_NAME": "IRIDIUM 33 DEB", "OBJECT_ID": "1997-051HW", "EPOCH": "2025-12-18T14:29:46.495968", "MEAN_MOTION": 14.40620248, "ECCENTRICITY": 0.00055161, "INCLINATION": 86.3637, "RA_OF_ASC_NODE": 32.9118, "ARG_OF_PERICENTER": 159.4672, "MEAN_ANOMALY": 200.675, "EPHEMERIS_TYPE": 0, "CLASSIFICATION_TYPE": "U", "NORAD_CAT_ID": 34529, "ELEMENT_SET_NO": 999, "REV_AT_EPOCH": 88226, "BSTAR": 8.9957173e-05, "MEAN_MOTION_DOT": 3.07e-06, "MEAN_MOTION_DDOT": 0}, "tle": {"line1": "1 34529U 97051HW  25352.60401037  .00000307  00000+0  89957-4 0  9994", "line2": "2 34529  86.3637  32.9118 0005516 159.4672 200.6750 14.40620248882260"}}, "geometry": {"type": "Point", "coordinates": [-148.18081088739706, 14.332886788887468]}}, {"type": "Feature", "properties": {"norad_id": 34538, "name": "IRIDIUM 33 DEB", "group": "iridium-33-debris", "lat": 48.7632169283506, "lon": 7.081892342924167, "alt_km": 750.1943323221494, "timestamp": "2025-12-18T23:35:49.447464+00:00", "meta": {"OBJECT_NAME": "IRIDIUM 33 DEB", "OBJECT_ID": "1997-051JF", "EPOCH": "2025-12-18T12:26:15.755424", "MEAN_MOTION": 14.42681675, "ECCENTRICITY": 0.00322881, "INCLINATION": 86.2766, "RA_OF_ASC_NODE": 3.0251, "ARG_OF_PERICENTER": 308.143, "MEAN_ANOMALY": 207.0938, "EPHEMERIS_TYPE": 0, "CLASSIFICATION_TYPE": "U", "NORAD_CAT_ID": 34538, "ELEMENT_SET_NO": 999, "REV_AT_EPOCH": 87839, "BSTAR": 0.0007613525, "MEAN_MOTION_DOT": 2.566e-05, "MEAN_MOTION_DDOT": 0}, "tle": {"line1": "1 34538U 97051JF  25352.51823791  .00002566  00000+0  76135-3 0  9991", "line2": "2 34538  86.2766   3.0251 0032288 308.1430 207.0938 14.42681675878391"}}, "geometry": {"type": "Point", "coordinates": [7.081892342924167, 48.7632169283506]}}, {"type": "Feature", "properties": {"norad_id": 34540, "name": "IRIDIUM 33 DEB", "group": "iridium-33-debris", "lat": 58.67444319620933, "lon": 118.66522580582645, "alt_km": 626.5246684955137, "timestamp": "2025-12-18T23:35:49.447474+00:00", "meta": {"OBJECT_NAME": "IRIDIUM 33 DEB", "OBJECT_ID": "1997-051JH", "EPOCH": "2025-12-18T08:57:29.352960", "MEAN_MOTION": 14.75435184, "ECCENTRICITY": 0.00173002, "INCLINATION": 86.3103, "RA_OF_ASC_NODE": 305.0304, "ARG_OF_PERICENTER": 139.8381, "MEAN_ANOMALY": 343.587, "EPHEMERIS_TYPE": 0, "CLASSIFICATION_TYPE": "U", "NORAD_CAT_ID": 34540, "ELEMENT_SET_NO": 999, "REV_AT_EPOCH": 89104, "BSTAR": 0.0013410572, "MEAN_MOTION_DOT": 9.16e-05, "MEAN_MOTION_DDOT": 0}, "tle": {"line1": "1 34540U 97051JH  25352.37325640  .00009160  00000+0  13411-2 0  9992", "line2": "2 34540  86.3103 305.0304 0017300 139.8381 343.5870 14.75435184891042"}}, "geometry": {"type": "Point", "coordinates": [118.66522580582645, 58.67444319620933]}}, {"type": "Feature", "properties": {"norad_id": 34648, "name": "IRIDIUM 33 DEB", "group": "iridium-33-debris", "lat": -82.94542681826593, "lon": -111.2441602414872, "alt_km": 730.4783245918507, "timestamp": "2025-12-18T23:35:49.447485+00:00", "meta": {"OBJECT_NAME": "IRIDIUM 33 DEB", "OBJECT_ID": "1997-051JZ", "EPOCH": "2025-12-18T13:46:37.352352", "MEAN_MOTION": 14.1166623, "ECCENTRICITY": 0.01808845, "INCLINATION": 86.3904, "RA_OF_ASC_NODE": 279.59, "ARG_OF_PERICENTER": 280.6676, "MEAN_ANOMALY": 77.4184, "EPHEMERIS_TYPE": 0, "CLASSIFICATION_TYPE": "U", "NORAD_CAT_ID": 34648, "ELEMENT_SET_NO": 999, "REV_AT_EPOCH": 85043, "BSTAR": 0.0055375481, "MEAN_MOTION_DOT": 0.00011772, "MEAN_MOTION_DDOT": 0}, "tle": {"line1": "1 34648U 97051JZ  25352.57404343  .00011772  00000+0  55375-2 0  9998", "line2": "2 34648  86.3904 279.5900 0180884 280.6676  77.4184 14.11666230850434"}}, "geometry": {"type": "Point", "coordinates": [-111.2441602414872, -82.94542681826593]}}, {"type": "Feature", "properties": {"norad_id": 34651, "name": "IRIDIUM 33 DEB", "group": "iridium-33-debris", "lat": -64.03552346256247, "lon": 130.24938030390572, "alt_km": 849.1281266670358, "timestamp": "2025-12-18T23:35:49.447495+00:00", "meta": {"OBJECT_NAME": "IRIDIUM 33 DEB", "OBJECT_ID": "1997-051KC", "EPOCH": "2025-12-18T03:41:38.471136", "MEAN_MOTION": 14.25903582, "ECCENTRICITY": 0.01422298, "INCLINATION": 86.2828, "RA_OF_ASC_NODE": 138.2742, "ARG_OF_PERICENTER": 186.7985, "MEAN_ANOMALY": 173.1282, "EPHEMERIS_TYPE": 0, "CLASSIFICATION_TYPE": "U", "NORAD_CAT_ID": 34651, "ELEMENT_SET_NO": 999, "REV_AT_EPOCH": 85973, "BSTAR": 0.0025867185, "MEAN_MOTION_DOT": 6.871e-05, "MEAN_MOTION_DDOT": 0}, "tle": {"line1": "1 34651U 97051KC  25352.15391749  .00006871  00000+0  25867-2 0  9998", "line2": "2 34651  86.2828 138.2742 0142229 186.7985 173.1282 14.25903582859731"}}, "geometry": {"type": "Point", "coordinates": [130.24938030390572, -64.03552346256247]}}, {"type": "Feature", "properties": {"norad_id": 34652, "name": "IRIDIUM 33 DEB", "group": "iridium-33-debris", "lat": 77.70966885318016, "lon": -5.650060768175994, "alt_km": 696.4114268069134, "timestamp": "2025-12-18T23:35:49.447506+00:00", "meta": {"OBJECT_NAME": "IRIDIUM 33 DEB", "OBJECT_ID": "1997-051KD", "EPOCH": "2025-12-18T10:49:30.707904", "MEAN_MOTION": 14.62110612, "ECCENTRICITY": 0.00255709, "INCLINATION": 86.3312, "RA_OF_ASC_NODE": 337.4583, "ARG_OF_PERICENTER": 277.3564, "MEAN_ANOMALY": 241.5689, "EPHEMERIS_TYPE": 0, "CLASSIFICATION_TYPE": "U", "NORAD_CAT_ID": 34652, "ELEMENT_SET_NO": 999, "REV_AT_EPOCH": 88567, "BSTAR": 0.00077809219, "MEAN_MOTION_DOT": 3.949e-05, "MEAN_MOTION_DDOT": 0}, "tle": {"line1": "1 34652U 97051KD  25352.45104986  .00003949  00000+0  77809-3 0  9994", "line2": "2 34652  86.3312 337.4583 0025570 277.3564 241.5689 14.62110612885674"}}, "geometry": {"type": "Point", "coordinates": [-5.650060768175994, 77.70966885318016]}}, {"type": "Feature", "properties": {"norad_id": 34690, "name": "IRIDIUM 33 DEB", "group": "iridium-33-debris", "lat": 35.38549689547414, "lon": -148.30037059669647, "alt_km": 711.8308754899363, "timestamp": "2025-12-18T23:35:49.447516+00:00", "meta": {"OBJECT_NAME": "IRIDIUM 33 DEB", "OBJECT_ID": "1997-051KM", "EPOCH": "2025-12-18T10:00:51.155136", "MEAN_MOTION": 14.55116306, "ECCENTRICITY": 0.00101708, "INCLINATION": 86.378, "RA_OF_ASC_NODE": 34.5242, "ARG_OF_PERICENTER": 10.8179, "MEAN_ANOMALY": 50.7531, "EPHEMERIS_TYPE": 0, "CLASSIFICATION_TYPE": "U", "NORAD_CAT_ID": 34690, "ELEMENT_SET_NO": 999, "REV_AT_EPOCH": 88177, "BSTAR": 0.00034845824, "MEAN_MOTION_DOT": 1.525e-05, "MEAN_MOTION_DDOT": 0}, "tle": {"line1": "1 34690U 97051KM  25352.41725874  .00001525  00000+0  34846-3 0  9999", "line2": "2 34690  86.3780  34.5242 0010170  10.8179  50.7531 14.55116306881775"}}, "geometry": {"type": "Point", "coordinates": [-148.30037059669647, 35.38549689547414]}}, {"type": "Feature", "properties": {"norad_id": 34693, "name": "IRIDIUM 33 DEB", "group": "iridium-33-debris", "lat": 44.128171909809254, "lon": -55.686063327132125, "alt_km": 465.5384013395751, "timestamp": "2025-12-18T23:35:49.447526+00:00", "meta": {"OBJECT_NAME": "IRIDIUM 33 DEB", "OBJECT_ID": "1997-051KQ", "EPOCH": "2025-12-17T03:29:01.779936", "MEAN_MOTION": 15.28993867, "ECCENTRICITY": 0.0012502, "INCLINATION": 86.3047, "RA_OF_ASC_NODE": 301.6344, "ARG_OF_PERICENTER": 45.3487, "MEAN_ANOMALY": 327.2881, "EPHEMERIS_TYPE": 0, "CLASSIFICATION_TYPE": "U", "NORAD_CAT_ID": 34693, "ELEMENT_SET_NO": 999, "REV_AT_EPOCH": 88982, "BSTAR": 0.0037800508, "MEAN_MOTION_DOT": 0.00107985, "MEAN_MOTION_DDOT": 0}, "tle": {"line1": "1 34693U 97051KQ  25351.14515949  .00107985  00000+0  37801-2 0  9991", "line2": "2 34693  86.3047 301.6344 0012502  45.3487 327.2881 15.28993867889821"}}, "geometry": {"type": "Point", "coordinates": [-55.686063327132125, 44.128171909809254]}}, {"type": "Feature", "properties": {"norad_id": 34696, "name": "IRIDIUM 33 DEB", "group": "iridium-33-debris", "lat": 28.883725467748675, "lon": -157.49271909027567, "alt_km": 622.6290230582408, "timestamp": "2025-12-18T23:35:49.447537+00:00", "meta": {"OBJECT_NAME": "IRIDIUM 33 DEB", "OBJECT_ID": "1997-051KT", "EPOCH": "2025-12-18T13:46:17.310144", "MEAN_MOTION": 14.65374938, "ECCENTRICITY": 0.00738622, "INCLINATION": 86.1844, "RA_OF_ASC_NODE": 24.8077, "ARG_OF_PERICENTER": 147.8205, "MEAN_ANOMALY": 4.7215, "EPHEMERIS_TYPE": 0, "CLASSIFICATION_TYPE": "U", "NORAD_CAT_ID": 34696, "ELEMENT_SET_NO": 999, "REV_AT_EPOCH": 86758, "BSTAR": 0.0032443033, "MEAN_MOTION_DOT": 0.00018298, "MEAN_MOTION_DDOT": 0}, "tle": {"line1": "1 34696U 97051KT  25352.57381146  .00018298  00000+0  32443-2 0  9997", "line2": "2 34696  86.1844  24.8077 0073862 147.8205   4.7215 14.65374938867585"}}, "geometry": {"type": "Point", "coordinates": [-157.49271909027567, 28.883725467748675]}}, {"type": "Feature", "properties": {"norad_id": 34765, "name": "IRIDIUM 33 DEB", "group": "iridium-33-debris", "lat": -24.748258124596443, "lon": -148.2260143144007, "alt_km": 751.453836945152, "timestamp": "2025-12-18T23:35:49.447547+00:00", "meta": {"OBJECT_NAME": "IRIDIUM 33 DEB", "OBJECT_ID": "1997-051LJ", "EPOCH": "2025-12-18T13:21:25.941600", "MEAN_MOTION": 14.40479279, "ECCENTRICITY": 0.00160914, "INCLINATION": 86.3386, "RA_OF_ASC_NODE": 30.2656, "ARG_OF_PERICENTER": 191.4295, "MEAN_ANOMALY": 322.071, "EPHEMERIS_TYPE": 0, "CLASSIFICATION_TYPE": "U", "NORAD_CAT_ID": 34765, "ELEMENT_SET_NO": 999, "REV_AT_EPOCH": 87697, "BSTAR": 0.00029987235, "MEAN_MOTION_DOT": 9.74e-06, "MEAN_MOTION_DDOT": 0}, "tle": {"line1": "1 34765U 97051LJ  25352.55655025  .00000974  00000+0  29987-3 0  9994", "line2": "2 34765  86.3386  30.2656 0016091 191.4295 322.0710 14.40479279876970"}}, "geometry": {"type": "Point", "coordinates": [-148.2260143144007, -24.748258124596443]}}]}